NORAD_CAT_ID,OBJECT_NAME,OBJECT_TYPE,EPOCH,MEAN_MOTION,ECCENTRICITY,INCLINATION,RA_OF_ASC_NODE,ARG_OF_PERICENTER,MEAN_ANOMALY,BSTAR,MEAN_MOTION_DOT,MEAN_MOTION_DDOT,TLE_LINE0,TLE_LINE1,TLE_LINE2,SEMIMAJOR_AXIS,PERIOD,APOGEE,PERIGEE,DECAYED
56479.0,STARLINK-6044,PAYLOAD,2024-02-26 14:08:41,14.98330651,0.0003027,69.9995,195.4007,266.9136,93.1676,5.4265e-05,5.55e-06,0.0,0 STARLINK-6044,1 56479U 23064AH  24057.58937422  .00000555  00000-0  54265-4 0  9995,2 56479  69.9995 195.4007 0003027 266.9136  93.1676 14.98330651 44584,6950.191,96.107,574.16,569.952,0.0
56479.0,STARLINK-6044,PAYLOAD,2024-02-26 18:57:05,14.98336649,0.0003177,69.9996,194.8957,270.8149,89.2646,9.8589e-05,1.084e-05,0.0,0 STARLINK-6044,1 56479U 23064AH  24057.78964872  .00001084  00000-0  98589-4 0  9991,2 56479  69.9996 194.8957 0003177 270.8149  89.2646 14.98336649 44975,6950.172,96.107,574.245,569.829,0.0
56479.0,STARLINK-6044,PAYLOAD,2024-02-27 10:58:27,14.98326986,0.0002788,70.0007,193.2135,271.1965,88.8875,-2.4695e-05,-3.88e-06,0.0,0 STARLINK-6044,1 56479U 23064AH  24058.45725952 -.00000388  00000-0 -24695-4 0  9995,2 56479  70.0007 193.2135 0002788 271.1965  88.8875 14.98326986 45073,6950.202,96.107,574.005,570.129,0.0
56479.0,STARLINK-6044,PAYLOAD,2024-02-27 14:10:43,14.98324281,0.0002815,70.0006,192.8768,271.889,88.1947,-1.1968e-05,-2.36e-06,0.0,0 STARLINK-6044,1 56479U 23064AH  24058.59078098 -.00000236  00000-0 -11968-4 0  9993,2 56479  70.0006 192.8768 0002815 271.8890  88.1947 14.98324281 44735,6950.211,96.107,574.032,570.119,0.0
56479.0,STARLINK-6044,PAYLOAD,2024-02-27 18:59:07,14.98326207,0.0002968,70.0005,192.3714,272.4154,87.6665,1.8295e-05,1.25e-06,0.0,0 STARLINK-6044,1 56479U 23064AH  24058.79105908  .00000125  00000-0  18295-4 0  9991,2 56479  70.0005 192.3714 0002968 272.4154  87.6665 14.98326207 44763,6950.205,96.107,574.132,570.007,0.0
56479.0,STARLINK-6044,PAYLOAD,2024-02-28 12:36:36,14.98288625,0.0003052,70.0008,190.522,264.4382,95.6429,0.0007324,8.647e-05,0.0,0 STARLINK-6044,1 56479U 23064AH  24059.52542482  .00008647  00000-0  73240-3 0  9992,2 56479  70.0008 190.5220 0003052 264.4382  95.6429 14.98288625 45238,6950.321,96.11,574.307,570.065,0.0
56479.0,STARLINK-6044,PAYLOAD,2024-02-28 19:01:08,14.98333166,0.0002789,70.0009,189.8488,265.0345,95.0496,-1.9851e-05,-3.3e-06,0.0,0 STARLINK-6044,1 56479U 23064AH  24059.79245437 -.00000330  00000-0 -19851-4 0  9993,2 56479  70.0009 189.8488 0002789 265.0345  95.0496 14.98333166 45271,6950.183,96.107,573.987,570.11,0.0
56479.0,STARLINK-6044,PAYLOAD,2024-02-29 14:14:44,14.9833036,0.0002918,70.0007,187.8284,267.1132,92.9693,5.7453e-05,5.93e-06,0.0,0 STARLINK-6044,1 56479U 23064AH  24060.59357277  .00000593  00000-0  57453-4 0  9998,2 56479  70.0007 187.8284 0002918 267.1132  92.9693 14.98330360 45034,6950.192,96.107,574.085,570.029,0.0
56479.0,STARLINK-6044,PAYLOAD,2024-02-29 17:27:00,14.98331783,0.0002904,70.0007,187.4918,267.0633,93.0194,7.0457e-05,7.48e-06,0.0,0 STARLINK-6044,1 56479U 23064AH  24060.72709135  .00000748  00000-0  70457-4 0  9998,2 56479  70.0007 187.4918 0002904 267.0633  93.0194 14.98331783 45054,6950.187,96.107,574.071,570.034,0.0
56479.0,STARLINK-6044,PAYLOAD,2024-03-01 11:04:29,14.98332298,0.0002867,70.0009,185.6403,264.6415,95.4417,4.6933e-06,-3.7e-07,0.0,0 STARLINK-6044,1 56479U 23064AH  24061.46145157 -.00000037  00000-0  46933-5 0  9993,2 56479  70.0009 185.6403 0002867 264.6415  95.4417 14.98332298 45522,6950.186,96.107,574.043,570.058,0.0
56479.0,STARLINK-6044,PAYLOAD,2024-03-01 14:16:45,14.98331544,0.0002915,70.0007,185.303,269.5567,90.5258,-3.6605e-06,-1.37e-06,0.0,0 STARLINK-6044,1 56479U 23064AH  24061.59497234 -.00000137  00000-0 -36605-5 0  9990,2 56479  70.0007 185.3030 0002915 269.5567  90.5258 14.98331544 45183,6950.188,96.107,574.079,570.027,0.0
56479.0,STARLINK-6044,PAYLOAD,2024-03-01 15:52:53,14.98331636,0.0002913,70.0006,185.1347,269.4021,90.6805,-2.3422e-06,-1.21e-06,0.0,0 STARLINK-6044,1 56479U 23064AH  24061.66173213 -.00000121  00000-0 -23422-5 0  9992,2 56479  70.0006 185.1347 0002913 269.4021  90.6805 14.98331636 45195,6950.188,96.107,574.077,570.028,0.0
56479.0,STARLINK-6044,PAYLOAD,2024-03-02 11:06:30,14.98330709,0.0002855,70.0004,183.1142,266.3578,93.7255,-5.9683e-05,-8.05e-06,0.0,0 STARLINK-6044,1 56479U 23064AH  24062.46285288 -.00000805  00000-0 -59683-4 0  9993,2 56479  70.0004 183.1142 0002855 266.3578  93.7255 14.98330709 45678,6950.191,96.107,574.04,570.071,0.0
56479.0,STARLINK-6044,PAYLOAD,2024-03-02 14:18:46,14.9833143,0.0002921,70.0003,182.7771,263.4475,96.6352,-5.0732e-05,-6.98e-06,0.0,0 STARLINK-6044,1 56479U 23064AH  24062.59637171 -.00000698  00000-0 -50732-4 0  9995,2 56479  70.0003 182.7771 0002921 263.4475  96.6352 14.98331430 45333,6950.188,96.107,574.084,570.023,0.0
56479.0,STARLINK-6044,PAYLOAD,2024-03-02 17:31:02,14.98332099,0.0002964,70.0004,182.4411,264.473,95.6091,-2.4977e-05,-3.91e-06,0.0,0 STARLINK-6044,1 56479U 23064AH  24062.72989042 -.00000391  00000-0 -24977-4 0  9999,2 56479  70.0004 182.4411 0002964 264.4730  95.6091 14.98332099 45357,6950.186,96.107,574.111,569.991,0.0
56479.0,STARLINK-6044,PAYLOAD,2024-03-03 11:08:31,14.98328819,0.0003065,70.0003,180.5891,266.9874,93.0934,-2.7773e-05,-4.24e-06,0.0,0 STARLINK-6044,1 56479U 23064AH  24063.46425222 -.00000424  00000-0 -27773-4 0  9990,2 56479  70.0003 180.5891 0003065 266.9874  93.0934 14.98328819 45821,6950.197,96.107,574.192,569.931,0.0
56479.0,STARLINK-6044,PAYLOAD,2024-03-03 17:33:03,14.98333562,0.0002982,70.0006,179.9162,267.5108,92.5709,3.2596e-05,2.96e-06,0.0,0 STARLINK-6044,1 56479U 23064AH  24063.73128745  .00000296  00000-0  32596-4 0  9994,2 56479  70.0006 179.9162 0002982 267.5108  92.5709 14.98333562 45501,6950.182,96.107,574.119,569.974,0.0
56479.0,STARLINK-6044,PAYLOAD,2024-03-04 14:22:47,14.9833565,0.0002981,70.0002,177.728,267.3637,92.7181,6.7789e-05,7.16e-06,0.0,0 STARLINK-6044,1 56479U 23064AH  24064.59916305  .00000716  00000-0  67789-4 0  9995,2 56479  70.0002 177.7280 0002981 267.3637  92.7181 14.98335650 45638,6950.175,96.107,574.112,569.969,0.0
56479.0,STARLINK-6044,PAYLOAD,2024-03-04 17:35:03,14.9834332,0.0003275,70.0004,177.3922,280.9413,79.1377,0.00016499,1.877e-05,0.0,0 STARLINK-6044,1 56479U 23064AH  24064.73267553  .00001877  00000-0  16499-3 0  9995,2 56479  70.0004 177.3922 0003275 280.9413  79.1377 14.98343320 46011,6950.152,96.106,574.293,569.741,0.0
56479.0,STARLINK-6044,PAYLOAD,2024-03-05 14:24:50,14.98327138,0.0002405,70.0024,175.2077,254.8832,105.2061,-0.00022769,-2.808e-05,0.0,0 STARLINK-6044,1 56479U 23064AH  24065.60057897 -.00002808  00000-0 -22769-3 0  9994,2 56479  70.0024 175.2077 0002405 254.8832 105.2061 14.98327138 45783,6950.202,96.107,573.738,570.395,0.0
56479.0,STARLINK-6044,PAYLOAD,2024-03-05 17:37:06,14.98321401,0.0002997,70.0006,174.8675,270.485,89.5965,-0.00010301,-1.322e-05,0.0,0 STARLINK-6044,1 56479U 23064AH  24065.73410006 -.00001322  00000-0 -10301-3 0  9992,2 56479  70.0006 174.8675 0002997 270.4850  89.5965 14.98321401 46169,6950.219,96.108,574.167,570.002,0.0
56479.0,STARLINK-6044,PAYLOAD,2024-03-06 11:14:34,14.98334517,0.00034,69.9997,173.0148,277.3248,82.7525,-2.3096e-05,-3.69e-06,0.0,0 STARLINK-6044,1 56479U 23064AH  24066.46845010 -.00000369  00000-0 -23096-4 0  9996,2 56479  69.9997 173.0148 0003400 277.3248  82.7525 14.98334517 46279,6950.179,96.107,574.407,569.681,0.0
56479.0,STARLINK-6044,PAYLOAD,2024-03-06 14:26:49,14.98337757,0.0002843,70.0,172.6786,268.8998,91.1835,5.1163e-05,5.18e-06,0.0,0 STARLINK-6044,1 56479U 23064AH  24066.60196550  .00000518  00000-0  51163-4 0  9990,2 56479  70.0000 172.6786 0002843 268.8998  91.1835 14.98337757 45936,6950.169,96.107,574.01,570.058,0.0
56479.0,STARLINK-6044,PAYLOAD,2024-03-06 16:02:57,14.98341543,0.0003218,70.0,172.5106,274.5873,85.4918,6.2899e-05,6.58e-06,0.0,0 STARLINK-6044,1 56479U 23064AH  24066.66872228  .00000658  00000-0  62899-4 0  9992,2 56479  70.0000 172.5106 0003218 274.5873  85.4918 14.98341543 46302,6950.157,96.106,574.259,569.786,0.0
56479.0,STARLINK-6044,PAYLOAD,2024-03-07 14:28:51,14.98319767,0.0003061,70.0002,170.1546,268.1727,91.9081,5.2131e-05,5.29e-06,0.0,0 STARLINK-6044,1 56479U 23064AH  24067.60337762  .00000529  00000-0  52131-4 0  9991,2 56479  70.0002 170.1546 0003061 268.1727  91.9081 14.98319767 46080,6950.225,96.108,574.217,569.962,0.0
56479.0,STARLINK-6044,PAYLOAD,2024-03-08 12:54:44,14.98335542,0.0002915,69.9999,167.7967,264.525,95.5577,-2.7564e-06,-1.26e-06,0.0,0 STARLINK-6044,1 56479U 23064AH  24068.53801037 -.00000126  00000-0 -27564-5 0  9993,2 56479  69.9999 167.7967 0002915 264.5250  95.5577 14.98335542 46583,6950.176,96.107,574.067,570.015,0.0
56479.0,STARLINK-6044,PAYLOAD,2024-03-09 11:20:36,14.98324875,0.0003131,70.0002,165.4409,267.2173,92.8628,0.00016878,1.921e-05,0.0,0 STARLINK-6044,1 56479U 23064AH  24069.47265044  .00001921  00000-0  16878-3 0  9995,2 56479  70.0002 165.4409 0003131 267.2173  92.8628 14.98324875 46722,6950.209,96.107,574.25,569.898,0.0
56479.0,STARLINK-6044,PAYLOAD,2024-03-09 12:56:46,14.98307014,0.0002931,70.0004,165.2733,269.0856,90.9967,-0.00018008,-2.24e-05,0.0,0 STARLINK-6044,1 56479U 23064AH  24069.53943075 -.00002240  00000-0 -18008-3 0  9993,2 56479  70.0004 165.2733 0002931 269.0856  90.9967 14.98307014 46379,6950.264,96.108,574.166,570.092,0.0
56479.0,STARLINK-6044,PAYLOAD,2024-03-10 12:58:45,14.98336057,0.0002639,70.0007,162.749,266.0899,93.9958,5.2745e-05,5.37e-06,0.0,0 STARLINK-6044,1 56479U 23064AH  24070.54080676  .00000537  00000-0  52745-4 0  9997,2 56479  70.0007 162.7490 0002639 266.0899  93.9958 14.98336057 46881,6950.174,96.107,573.873,570.205,0.0
56479.0,STARLINK-6044,PAYLOAD,2024-03-10 16:11:02,14.98332808,0.000298,70.0,162.4123,268.4805,91.6013,1.6054e-05,9.9e-07,0.0,0 STARLINK-6044,1 56479U 23064AH  24070.67432943  .00000099  00000-0  16054-4 0  9995,2 56479  70.0000 162.4123 0002980 268.4805  91.6013 14.98332808 46546,6950.184,96.107,574.12,569.978,0.0
